{
  "type": "FeatureCollection",
  "features": [
    {
      "type": "Feature",
      "properties": {
        "norad_id": 66801,
        "name": "STARLINK-36080",
        "group": "last-30-days",
        "lat": 35.27331385298827,
        "lon": -66.61208976501045,
        "alt_km": 430.15648650166713,
        "timestamp": "2025-12-27T16:33:28.972957+00:00",
        "meta_object_name": "STARLINK-36080",
        "meta_object_id": "2025-278L",
        "meta_epoch": "2025-12-27T12:00:02.000160",
        "meta_mean_motion": 15.44711377,
        "meta_eccentricity": 0.0001314,
        "meta_inclination": 42.9995,
        "meta_ra_of_asc_node": 163.8718,
        "meta_arg_of_pericenter": 278.3008,
        "meta_mean_anomaly": 226.8067,
        "meta_ephemeris_type": 0,
        "meta_classification_type": "U",
        "meta_norad_cat_id": 66801,
        "meta_element_set_no": 999,
        "meta_rev_at_epoch": 533,
        "meta_bstar": -0.048674,
        "meta_mean_motion_dot": -0.02066618,
        "meta_mean_motion_ddot": 0,
        "tle_line1": "1 66801U 25278L   25361.50002315 -.02066618  00000+0 -48674-1 0  9998",
        "tle_line2": "2 66801  42.9995 163.8718 0001314 278.3008 226.8067 15.44711377  5334"
      },
      "geometry": {
        "type": "Point",
        "coordinates": [
          -66.61208976501045,
          35.27331385298827
        ]
      }
    },
    {
      "type": "Feature",
      "properties": {
        "norad_id": 66802,
        "name": "STARLINK-35604",
        "group": "last-30-days",
        "lat": 32.08833411337611,
        "lon": -59.533521695608485,
        "alt_km": 410.6640619575155,
        "timestamp": "2025-12-27T16:33:28.972967+00:00",
        "meta_object_name": "STARLINK-35604",
        "meta_object_id": "2025-278M",
        "meta_epoch": "2025-12-27T11:22:03.549216",
        "meta_mean_motion": 15.50612071,
        "meta_eccentricity": 0.0001968,
        "meta_inclination": 43.0003,
        "meta_ra_of_asc_node": 164.0205,
        "meta_arg_of_pericenter": 265.5004,
        "meta_mean_anomaly": 94.5632,
        "meta_ephemeris_type": 0,
        "meta_classification_type": "U",
        "meta_norad_cat_id": 66802,
        "meta_element_set_no": 999,
        "meta_rev_at_epoch": 414,
        "meta_bstar": 0.0021356,
        "meta_mean_motion_dot": 0.00127151,
        "meta_mean_motion_ddot": 0,
        "tle_line1": "1 66802U 25278M   25361.47365219  .00127151  00000+0  21356-2 0  9995",
        "tle_line2": "2 66802  43.0003 164.0205 0001968 265.5004  94.5632 15.50612071  4144"
      },
      "geometry": {
        "type": "Point",
        "coordinates": [
          -59.533521695608485,
          32.08833411337611
        ]
      }
    },
    {
      "type": "Feature",
      "properties": {
        "norad_id": 66803,
        "name": "STARLINK-35565",
        "group": "last-30-days",
        "lat": 25.33516324268529,
        "lon": -166.49155784999093,
        "alt_km": 440.6705258612983,
        "timestamp": "2025-12-27T16:33:28.972978+00:00",
        "meta_object_name": "STARLINK-35565",
        "meta_object_id": "2025-278N",
        "meta_epoch": "2025-12-27T12:00:02.000160",
        "meta_mean_motion": 15.40664519,
        "meta_eccentricity": 0.0001537,
        "meta_inclination": 42.9997,
        "meta_ra_of_asc_node": 164.0671,
        "meta_arg_of_pericenter": 273.9027,
        "meta_mean_anomaly": 150.534,
        "meta_ephemeris_type": 0,
        "meta_classification_type": "U",
        "meta_norad_cat_id": 66803,
        "meta_element_set_no": 999,
        "meta_rev_at_epoch": 541,
        "meta_bstar": 0.00089674,
        "meta_mean_motion_dot": 0.00037295,
        "meta_mean_motion_ddot": 0,
        "tle_line1": "1 66803U 25278N   25361.50002315  .00037295  00000+0  89674-3 0  9992",
        "tle_line2": "2 66803  42.9997 164.0671 0001537 273.9027 150.5340 15.40664519  5415"
      },
      "geometry": {
        "type": "Point",
        "coordinates": [
          -166.49155784999093,
          25.33516324268529
        ]
      }
    },
    {
      "type": "Feature",
      "properties": {
        "norad_id": 66804,
        "name": "STARLINK-36038",
        "group": "last-30-days",
        "lat": 32.15452437243875,
        "lon": -154.633381529537,
        "alt_km": 439.9668200005681,
        "timestamp": "2025-12-27T16:33:28.972988+00:00",
        "meta_object_name": "STARLINK-36038",
        "meta_object_id": "2025-278P",
        "meta_epoch": "2025-12-27T12:00:02.000160",
        "meta_mean_motion": 15.40658551,
        "meta_eccentricity": 0.0001749,
        "meta_inclination": 42.9998,
        "meta_ra_of_asc_node": 164.0379,
        "meta_arg_of_pericenter": 265.2471,
        "meta_mean_anomaly": 171.6242,
        "meta_ephemeris_type": 0,
        "meta_classification_type": "U",
        "meta_norad_cat_id": 66804,
        "meta_element_set_no": 999,
        "meta_rev_at_epoch": 533,
        "meta_bstar": 0.0011193,
        "meta_mean_motion_dot": 0.00046676,
        "meta_mean_motion_ddot": 0,
        "tle_line1": "1 66804U 25278P   25361.50002315  .00046676  00000+0  11193-2 0  9996",
        "tle_line2": "2 66804  42.9998 164.0379 0001749 265.2471 171.6242 15.40658551  5339"
      },
      "geometry": {
        "type": "Point",
        "coordinates": [
          -154.633381529537,
          32.15452437243875
        ]
      }
    },
    {
      "type": "Feature",
      "properties": {
        "norad_id": 66805,
        "name": "STARLINK-36049",
        "group": "last-30-days",
        "lat": 41.463370996950786,
        "lon": -125.6393773062951,
        "alt_km": 438.7612064619552,
        "timestamp": "2025-12-27T16:33:28.973000+00:00",
        "meta_object_name": "STARLINK-36049",
        "meta_object_id": "2025-278Q",
        "meta_epoch": "2025-12-27T12:00:02.000160",
        "meta_mean_motion": 15.40667894,
        "meta_eccentricity": 0.0001867,
        "meta_inclination": 42.9998,
        "meta_ra_of_asc_node": 163.9758,
        "meta_arg_of_pericenter": 263.8879,
        "meta_mean_anomaly": 197.8632,
        "meta_ephemeris_type": 0,
        "meta_classification_type": "U",
        "meta_norad_cat_id": 66805,
        "meta_element_set_no": 999,
        "meta_rev_at_epoch": 533,
        "meta_bstar": 0.00088714,
        "meta_mean_motion_dot": 0.00036895,
        "meta_mean_motion_ddot": 0,
        "tle_line1": "1 66805U 25278Q   25361.50002315  .00036895  00000+0  88714-3 0  9993",
        "tle_line2": "2 66805  42.9998 163.9758 0001867 263.8879 197.8632 15.40667894  5339"
      },
      "geometry": {
        "type": "Point",
        "coordinates": [
          -125.6393773062951,
          41.463370996950786
        ]
      }
    },
    {
      "type": "Feature",
      "properties": {
        "norad_id": 66806,
        "name": "STARLINK-36069",
        "group": "last-30-days",
        "lat": 32.652057689573226,
        "lon": -60.68862724543018,
        "alt_km": 424.3564959368505,
        "timestamp": "2025-12-27T16:33:28.973012+00:00",
        "meta_object_name": "STARLINK-36069",
        "meta_object_id": "2025-278R",
        "meta_epoch": "2025-12-27T12:00:02.000160",
        "meta_mean_motion": 15.4677256,
        "meta_eccentricity": 0.0001167,
        "meta_inclination": 43.0002,
        "meta_ra_of_asc_node": 163.861,
        "meta_arg_of_pericenter": 275.1833,
        "meta_mean_anomaly": 234.0829,
        "meta_ephemeris_type": 0,
        "meta_classification_type": "U",
        "meta_norad_cat_id": 66806,
        "meta_element_set_no": 999,
        "meta_rev_at_epoch": 512,
        "meta_bstar": -0.04527,
        "meta_mean_motion_dot": -0.02064802,
        "meta_mean_motion_ddot": 0,
        "tle_line1": "1 66806U 25278R   25361.50002315 -.02064802  00000+0 -45270-1 0  9995",
        "tle_line2": "2 66806  43.0002 163.8610 0001167 275.1833 234.0829 15.46772560  5125"
      },
      "geometry": {
        "type": "Point",
        "coordinates": [
          -60.68862724543018,
          32.652057689573226
        ]
      }
    },
    {
      "type": "Feature",
      "properties": {
        "norad_id": 66807,
        "name": "STARLINK-36000",
        "group": "last-30-days",
        "lat": 24.680973339473237,
        "lon": -46.82748088107801,
        "alt_km": 411.78297555902464,
        "timestamp": "2025-12-27T16:33:28.973022+00:00",
        "meta_object_name": "STARLINK-36000",
        "meta_object_id": "2025-278S",
        "meta_epoch": "2025-12-27T00:00:02.999808",
        "meta_mean_motion": 15.50562915,
        "meta_eccentricity": 0.00016858,
        "meta_inclination": 42.9998,
        "meta_ra_of_asc_node": 166.7573,
        "meta_arg_of_pericenter": 270.5806,
        "meta_mean_anomaly": 335.9641,
        "meta_ephemeris_type": 0,
        "meta_classification_type": "U",
        "meta_norad_cat_id": 66807,
        "meta_element_set_no": 999,
        "meta_rev_at_epoch": 531,
        "meta_bstar": 0.00067280163,
        "meta_mean_motion_dot": 0.00039304,
        "meta_mean_motion_ddot": 0,
        "tle_line1": "1 66807U 25278S   25361.00003472  .00039304  00000+0  67280-3 0  9998",
        "tle_line2": "2 66807  42.9998 166.7573 0001685 270.5806 335.9641 15.50562915  5312"
      },
      "geometry": {
        "type": "Point",
        "coordinates": [
          -46.82748088107801,
          24.680973339473237
        ]
      }
    }
  ]
}